CELESTIS-02 & TAURUS R/B
1 25160U 98007D   24181.94748865  .00000242  00000+0  16464-3 0  9996
2 25160 108.0024 324.8599 0063931 278.4434 202.1712 14.22008641368533
